ORBCOMM FM103 [+]       
1 40091U 14040F   24023.78984714  .00001102  00000+0  28434-3 0  9999
2 40091  47.0051 264.4787 0001471  99.1817 260.9234 14.56237360506722
ORBCOMM FM114 [+]       
1 41179U 15081A   24022.52066339  .00002054  00000+0  49746-3 0  9994
2 41179  47.0000 179.7708 0001918 182.6175 177.4700 14.56236801429842
ORBCOMM FM119 [-]       
1 41180U 15081B   24023.99867080  .00001244  00000+0  31619-3 0  9990
2 41180  47.0014  82.0029 0002277 248.9562 111.1080 14.56229644431314
ORBCOMM FM105 [-]       
1 41181U 15081C   24023.97157061  .00000621  00000+0  22490-3 0  9995
2 41181  47.0027  39.2793 0002189 220.5821 139.4896 14.44198283426972
ORBCOMM FM110 [+]       
1 41182U 15081D   24022.56624721  .00001859  00000+0  45380-3 0  9999
2 41182  47.0003 178.9721 0001703 315.9886  44.0863 14.56229170429724
ORBCOMM FM118 [+]       
1 41183U 15081E   24022.54350320  .00001637  00000+0  40424-3 0  9997
2 41183  47.0026 179.3628 0001897 318.2436  41.8304 14.56226718429823
ORBCOMM FM112 [+]       
1 41184U 15081F   24023.97678598  .00001958  00000+0  47593-3 0  9996
2 41184  46.9988  81.3481 0002110 238.3863 121.6816 14.56229304431252
ORBCOMM FM113 [+]       
1 41185U 15081G   24023.95354714  .00001855  00000+0  45305-3 0  9991
2 41185  47.0007  81.7023 0001879 254.5547 105.5131 14.56223511431236
